[
  {
    "COMMENT": "GENERATED VIA SPACETRACK.ORG API",
    "ORIGINATOR": "18 SPCS",
    "NORAD_CAT_ID": "46469",
    "OBJECT_NAME": "HAIYANG 2C",
    "OBJECT_TYPE": "PAYLOAD",
    "CLASSIFICATION_TYPE": "U",
    "INTLDES": "20066A",
    "EPOCH": "2023-06-18 20:09:22",
    "EPOCH_MICROSECONDS": "774752",
    "MEAN_MOTION": "13.8337768",
    "ECCENTRICITY": "0.0009716",
    "INCLINATION": "65.9974",
    "RA_OF_ASC_NODE": "59.9679",
    "ARG_OF_PERICENTER": "300.3911",
    "MEAN_ANOMALY": "59.6197",
    "EPHEMERIS_TYPE": "0",
    "ELEMENT_SET_NO": "999",
    "REV_AT_EPOCH": "13812",
    "BSTAR": "0.000071545",
    "MEAN_MOTION_DOT": "-0.00000002",
    "MEAN_MOTION_DDOT": "0",
    "FILE": "3936745",
    "TLE_LINE0": "0 HAIYANG 2C",
    "TLE_LINE1": "1 46469U 20066A   23169.83984693 -.00000002  00000-0  71545-4 0  9993",
    "TLE_LINE2": "2 46469  65.9974  59.9679 0009716 300.3911  59.6197 13.83377680138124",
    "OBJECT_ID": "2020-066A",
    "OBJECT_NUMBER": "46469",
    "SEMIMAJOR_AXIS": "7330.068",
    "PERIOD": "104.093",
    "APOGEE": "959.055",
    "PERIGEE": "944.811",
    "DECAYED": "0"
  },
  {
    "COMMENT": "GENERATED VIA SPACETRACK.ORG API",
    "ORIGINATOR": "18 SPCS",
    "NORAD_CAT_ID": "46469",
    "OBJECT_NAME": "HAIYANG 2C",
    "OBJECT_TYPE": "PAYLOAD",
    "CLASSIFICATION_TYPE": "U",
    "INTLDES": "20066A",
    "EPOCH": "2023-06-19 01:21:41",
    "EPOCH_MICROSECONDS": "527296",
    "MEAN_MOTION": "13.83377732",
    "ECCENTRICITY": "0.0009725",
    "INCLINATION": "65.9974",
    "RA_OF_ASC_NODE": "59.4279",
    "ARG_OF_PERICENTER": "300.3833",
    "MEAN_ANOMALY": "59.6273",
    "EPHEMERIS_TYPE": "0",
    "ELEMENT_SET_NO": "999",
    "REV_AT_EPOCH": "13844",
    "BSTAR": "0.000080399",
    "MEAN_MOTION_DOT": "0.00000007",
    "MEAN_MOTION_DDOT": "0",
    "FILE": "3936907",
    "TLE_LINE0": "0 HAIYANG 2C",
    "TLE_LINE1": "1 46469U 20066A   23170.05673064  .00000007  00000-0  80399-4 0  9997",
    "TLE_LINE2": "2 46469  65.9974  59.4279 0009725 300.3833  59.6273 13.83377732138446",
    "OBJECT_ID": "2020-066A",
    "OBJECT_NUMBER": "46469",
    "SEMIMAJOR_AXIS": "7330.068",
    "PERIOD": "104.093",
    "APOGEE": "959.061",
    "PERIGEE": "944.804",
    "DECAYED": "0"
  },
  {
    "COMMENT": "GENERATED VIA SPACETRACK.ORG API",
    "ORIGINATOR": "18 SPCS",
    "NORAD_CAT_ID": "46469",
    "OBJECT_NAME": "HAIYANG 2C",
    "OBJECT_TYPE": "PAYLOAD",
    "CLASSIFICATION_TYPE": "U",
    "INTLDES": "20066A",
    "EPOCH": "2023-06-19 11:46:19",
    "EPOCH_MICROSECONDS": "28064",
    "MEAN_MOTION": "13.83377811",
    "ECCENTRICITY": "0.000974",
    "INCLINATION": "65.9974",
    "RA_OF_ASC_NODE": "58.348",
    "ARG_OF_PERICENTER": "300.3374",
    "MEAN_ANOMALY": "59.673",
    "EPHEMERIS_TYPE": "0",
    "ELEMENT_SET_NO": "999",
    "REV_AT_EPOCH": "13850",
    "BSTAR": "0.000078431",
    "MEAN_MOTION_DOT": "0.00000005",
    "MEAN_MOTION_DDOT": "0",
    "FILE": "3937124",
    "TLE_LINE0": "0 HAIYANG 2C",
    "TLE_LINE1": "1 46469U 20066A   23170.49049801  .00000005  00000-0  78431-4 0  9993",
    "TLE_LINE2": "2 46469  65.9974  58.3480 0009740 300.3374  59.6730 13.83377811138508",
    "OBJECT_ID": "2020-066A",
    "OBJECT_NUMBER": "46469",
    "SEMIMAJOR_AXIS": "7330.067",
    "PERIOD": "104.093",
    "APOGEE": "959.072",
    "PERIGEE": "944.793",
    "DECAYED": "0"
  },
  {
    "COMMENT": "GENERATED VIA SPACETRACK.ORG API",
    "ORIGINATOR": "18 SPCS",
    "NORAD_CAT_ID": "46469",
    "OBJECT_NAME": "HAIYANG 2C",
    "OBJECT_TYPE": "PAYLOAD",
    "CLASSIFICATION_TYPE": "U",
    "INTLDES": "20066A",
    "EPOCH": "2023-06-19 13:30:25",
    "EPOCH_MICROSECONDS": "278912",
    "MEAN_MOTION": "13.83377822",
    "ECCENTRICITY": "0.0009742",
    "INCLINATION": "65.9974",
    "RA_OF_ASC_NODE": "58.168",
    "ARG_OF_PERICENTER": "300.3293",
    "MEAN_ANOMALY": "59.6811",
    "EPHEMERIS_TYPE": "0",
    "ELEMENT_SET_NO": "999",
    "REV_AT_EPOCH": "13822",
    "BSTAR": "0.000077677",
    "MEAN_MOTION_DOT": "0.00000004",
    "MEAN_MOTION_DDOT": "0",
    "FILE": "3937338",
    "TLE_LINE0": "0 HAIYANG 2C",
    "TLE_LINE1": "1 46469U 20066A   23170.56279258  .00000004  00000-0  77677-4 0  9992",
    "TLE_LINE2": "2 46469  65.9974  58.1680 0009742 300.3293  59.6811 13.83377822138221",
    "OBJECT_ID": "2020-066A",
    "OBJECT_NUMBER": "46469",
    "SEMIMAJOR_AXIS": "7330.067",
    "PERIOD": "104.093",
    "APOGEE": "959.073",
    "PERIGEE": "944.791",
    "DECAYED": "0"
  },
  {
    "COMMENT": "GENERATED VIA SPACETRACK.ORG API",
    "ORIGINATOR": "18 SPCS",
    "NORAD_CAT_ID": "46469",
    "OBJECT_NAME": "HAIYANG 2C",
    "OBJECT_TYPE": "PAYLOAD",
    "CLASSIFICATION_TYPE": "U",
    "INTLDES": "20066A",
    "EPOCH": "2023-06-19 16:58:37",
    "EPOCH_MICROSECONDS": "777152",
    "MEAN_MOTION": "13.8337784",
    "ECCENTRICITY": "0.0009744",
    "INCLINATION": "65.9974",
    "RA_OF_ASC_NODE": "57.808",
    "ARG_OF_PERICENTER": "300.3111",
    "MEAN_ANOMALY": "59.6993",
    "EPHEMERIS_TYPE": "0",
    "ELEMENT_SET_NO": "999",
    "REV_AT_EPOCH": "13853",
    "BSTAR": "0.000073284",
    "MEAN_MOTION_DOT": "-0.00000001",
    "MEAN_MOTION_DDOT": "0",
    "FILE": "3937390",
    "TLE_LINE0": "0 HAIYANG 2C",
    "TLE_LINE1": "1 46469U 20066A   23170.70738168 -.00000001  00000-0  73284-4 0  9996",
    "TLE_LINE2": "2 46469  65.9974  57.8080 0009744 300.3111  59.6993 13.83377840138537",
    "OBJECT_ID": "2020-066A",
    "OBJECT_NUMBER": "46469",
    "SEMIMAJOR_AXIS": "7330.067",
    "PERIOD": "104.093",
    "APOGEE": "959.075",
    "PERIGEE": "944.790",
    "DECAYED": "0"
  },
  {
    "COMMENT": "GENERATED VIA SPACETRACK.ORG API",
    "ORIGINATOR": "18 SPCS",
    "NORAD_CAT_ID": "46469",
    "OBJECT_NAME": "HAIYANG 2C",
    "OBJECT_TYPE": "PAYLOAD",
    "CLASSIFICATION_TYPE": "U",
    "INTLDES": "20066A",
    "EPOCH": "2023-06-19 20:26:50",
    "EPOCH_MICROSECONDS": "273664",
    "MEAN_MOTION": "13.83377866",
    "ECCENTRICITY": "0.0009753",
    "INCLINATION": "65.9974",
    "RA_OF_ASC_NODE": "57.448",
    "ARG_OF_PERICENTER": "300.2851",
    "MEAN_ANOMALY": "59.7252",
    "EPHEMERIS_TYPE": "0",
    "ELEMENT_SET_NO": "999",
    "REV_AT_EPOCH": "13826",
    "BSTAR": "0.00007516",
    "MEAN_MOTION_DOT": "0.00000002",
    "MEAN_MOTION_DDOT": "0",
    "FILE": "3937509",
    "TLE_LINE0": "0 HAIYANG 2C",
    "TLE_LINE1": "1 46469U 20066A   23170.85197076  .00000002  00000-0  75160-4 0  9994",
    "TLE_LINE2": "2 46469  65.9974  57.4480 0009753 300.2851  59.7252 13.83377866138264",
    "OBJECT_ID": "2020-066A",
    "OBJECT_NUMBER": "46469",
    "SEMIMAJOR_AXIS": "7330.067",
    "PERIOD": "104.093",
    "APOGEE": "959.081",
    "PERIGEE": "944.783",
    "DECAYED": "0"
  },
  {
    "COMMENT": "GENERATED VIA SPACETRACK.ORG API",
    "ORIGINATOR": "18 SPCS",
    "NORAD_CAT_ID": "46469",
    "OBJECT_NAME": "HAIYANG 2C",
    "OBJECT_TYPE": "PAYLOAD",
    "CLASSIFICATION_TYPE": "U",
    "INTLDES": "20066A",
    "EPOCH": "2023-06-20 03:23:15",
    "EPOCH_MICROSECONDS": "273600",
    "MEAN_MOTION": "13.83377928",
    "ECCENTRICITY": "0.0009768",
    "INCLINATION": "65.9974",
    "RA_OF_ASC_NODE": "56.728",
    "ARG_OF_PERICENTER": "300.2922",
    "MEAN_ANOMALY": "59.7179",
    "EPHEMERIS_TYPE": "0",
    "ELEMENT_SET_NO": "999",
    "REV_AT_EPOCH": "13859",
    "BSTAR": "0.000081332",
    "MEAN_MOTION_DOT": "0.00000008",
    "MEAN_MOTION_DDOT": "0",
    "FILE": "3937604",
    "TLE_LINE0": "0 HAIYANG 2C",
    "TLE_LINE1": "1 46469U 20066A   23171.14114900  .00000008  00000-0  81332-4 0  9996",
    "TLE_LINE2": "2 46469  65.9974  56.7280 0009768 300.2922  59.7179 13.83377928138592",
    "OBJECT_ID": "2020-066A",
    "OBJECT_NUMBER": "46469",
    "SEMIMAJOR_AXIS": "7330.067",
    "PERIOD": "104.093",
    "APOGEE": "959.092",
    "PERIGEE": "944.772",
    "DECAYED": "0"
  },
  {
    "COMMENT": "GENERATED VIA SPACETRACK.ORG API",
    "ORIGINATOR": "18 SPCS",
    "NORAD_CAT_ID": "46469",
    "OBJECT_NAME": "HAIYANG 2C",
    "OBJECT_TYPE": "PAYLOAD",
    "CLASSIFICATION_TYPE": "U",
    "INTLDES": "20066A",
    "EPOCH": "2023-06-20 08:35:34",
    "EPOCH_MICROSECONDS": "21824",
    "MEAN_MOTION": "13.83377942",
    "ECCENTRICITY": "0.0009778",
    "INCLINATION": "65.9974",
    "RA_OF_ASC_NODE": "56.1881",
    "ARG_OF_PERICENTER": "300.2793",
    "MEAN_ANOMALY": "59.7307",
    "EPHEMERIS_TYPE": "0",
    "ELEMENT_SET_NO": "999",
    "REV_AT_EPOCH": "13862",
    "BSTAR": "0.000076036",
    "MEAN_MOTION_DOT": "0.00000002",
    "MEAN_MOTION_DDOT": "0",
    "FILE": "3937929",
    "TLE_LINE0": "0 HAIYANG 2C",
    "TLE_LINE1": "1 46469U 20066A   23171.35803266  .00000002  00000-0  76036-4 0  9998",
    "TLE_LINE2": "2 46469  65.9974  56.1881 0009778 300.2793  59.7307 13.83377942138623",
    "OBJECT_ID": "2020-066A",
    "OBJECT_NUMBER": "46469",
    "SEMIMAJOR_AXIS": "7330.067",
    "PERIOD": "104.093",
    "APOGEE": "959.099",
    "PERIGEE": "944.765",
    "DECAYED": "0"
  },
  {
    "COMMENT": "GENERATED VIA SPACETRACK.ORG API",
    "ORIGINATOR": "18 SPCS",
    "NORAD_CAT_ID": "46469",
    "OBJECT_NAME": "HAIYANG 2C",
    "OBJECT_TYPE": "PAYLOAD",
    "CLASSIFICATION_TYPE": "U",
    "INTLDES": "20066A",
    "EPOCH": "2023-06-20 08:35:34",
    "EPOCH_MICROSECONDS": "21824",
    "MEAN_MOTION": "13.83377942",
    "ECCENTRICITY": "0.0009778",
    "INCLINATION": "65.9974",
    "RA_OF_ASC_NODE": "56.1881",
    "ARG_OF_PERICENTER": "300.2793",
    "MEAN_ANOMALY": "59.7307",
    "EPHEMERIS_TYPE": "0",
    "ELEMENT_SET_NO": "999",
    "REV_AT_EPOCH": "13833",
    "BSTAR": "0.000076036",
    "MEAN_MOTION_DOT": "0.00000002",
    "MEAN_MOTION_DDOT": "0",
    "FILE": "3938135",
    "TLE_LINE0": "0 HAIYANG 2C",
    "TLE_LINE1": "1 46469U 20066A   23171.35803266  .00000002  00000-0  76036-4 0  9998",
    "TLE_LINE2": "2 46469  65.9974  56.1881 0009778 300.2793  59.7307 13.83377942138331",
    "OBJECT_ID": "2020-066A",
    "OBJECT_NUMBER": "46469",
    "SEMIMAJOR_AXIS": "7330.067",
    "PERIOD": "104.093",
    "APOGEE": "959.099",
    "PERIGEE": "944.765",
    "DECAYED": "0"
  }
]